ISS (ZARYA)             
1 25544U 98067A   20177.54743984  .00000643  00000-0  19557-4 0  9995
2 25544  51.6448 307.0852 0002519  82.7533 354.3691 15.49459678233311
KESTREL EYE IIM (KE2M)  
1 42982U 98067NE  20177.52355489  .00007911  00000-0  68494-4 0  9996
2 42982  51.6332 240.1410 0003039 110.2440 249.8884 15.70248923152345
DELLINGR (RBLE)         
1 43021U 98067NJ  20177.44847176  .00008144  00000-0  68434-4 0  9994
2 43021  51.6345 238.9614 0001760  66.1596 293.9586 15.70929428148121
UBAKUSAT                
1 43467U 98067NQ  20177.46946968  .00018588  00000-0  12158-3 0  9993
2 43467  51.6343 240.4613 0001932  29.2367 330.8741 15.75872558121375
CUBERRT                 
1 43546U 98067NU  20177.50858612  .00024043  00000-0  16955-3 0  9996
2 43546  51.6333 240.0118 0002795  98.1013 262.0303 15.73933376111518
TEMPEST-D               
1 43547U 98067NV  20177.53296768  .00003269  00000-0  41642-4 0  9997
2 43547  51.6364 271.0819 0005016  85.3895 274.7672 15.62667089110780
RAINCUBE                
1 43548U 98067NW  20177.45197820  .00018347  00000-0  12643-3 0  9999
2 43548  51.6305 248.5962 0002743  96.5326 263.5985 15.74673590111524
HALOSAT                 
1 43549U 98067NX  20177.45820672  .00018645  00000-0  13287-3 0  9994
2 43549  51.6337 249.4725 0002407 101.5000 258.6269 15.73876327111072
